2022-002G               
1 50990U 22002G   22027.76492146  .00005464  00000+0  30591-3 0  9990
2 50990  97.5052  97.2303 0014960 176.1280 184.0069 15.13752346  2144
FOSSASAT2E6             
1 50991U 22002H   22027.76639612  .00005814  00000+0  32676-3 0  9997
2 50991  97.5101  97.2405 0014722 181.7439 178.3744 15.13592258  2147
FLOCK 4X-8              
1 50992U 22002J   22027.83926888  .00001544  00000+0  91581-4 0  9997
2 50992  97.5071  97.2932 0011727 189.7046 170.3960 15.12792930  2154
VZLUSAT-3             
1 50993U 22002K   22027.77622880  .00000780  00000+0  48529-4 0  9991
2 50993  97.5058  97.2161 0010779 182.6827 177.4347 15.12439816  2146
FLOCK 4X-44             
1 50994U 22002L   22027.77338397  .00001613  00000+0  95593-4 0  9998
2 50994  97.5092  97.2314 0012045 188.8508 171.2513 15.12760845  2143
MDASAT-1A               
1 50995U 22002M   22027.37987016  .00002221  00000+0  13159-3 0  9996
2 50995  97.5013  96.8137 0010085 180.5226 179.5996 15.12393282  2089
FLOCK 4X-2              
1 50996U 22002N   22027.77311599  .00001615  00000+0  95608-4 0  9994
2 50996  97.5084  97.2300 0011978 188.7478 171.3546 15.12793942  2141
FLOCK 4X-20             
1 50997U 22002P   22027.77304552  .00001611  00000+0  95375-4 0  9993
2 50997  97.5081  97.2307 0011932 190.1678 169.9314 15.12797223  2147
2022-002Q               
1 50998U 22002Q   22027.37569591  .00002971  00000+0  17235-3 0  9994
2 50998  97.5006  96.8187 0011767 179.1114 181.0140 15.12868629  2088
2022-002R               
1 50999U 22002R   22027.77253194  .00002713  00000+0  15769-3 0  9992
2 50999  97.5004  97.2087 0011807 177.5482 182.5809 15.12872910  2149
FLOCK 4X-30             
1 51000U 22002S   22027.50813875  .00001534  00000+0  90905-4 0  9991
2 51000  97.5028  96.9529 0012195 182.2028 177.9151 15.12833068  2101
FOSSASAT2E5             
1 51001U 22002T   22027.37010632  .00006897  00000+0  38733-3 0  9994
2 51001  97.5105  96.8496 0014516 183.7766 176.3358 15.13551116  2085
2022-002U               
1 51002U 22002U   22027.77234877  .00001924  00000+0  11287-3 0  9999
2 51002  97.5025  97.2135 0012122 180.0594 180.0638 15.12883030  2144
FLOCK 4X-22             
1 51003U 22002V   22027.50775147  .00001675  00000+0  98791-4 0  9990
2 51003  97.5066  96.9684 0011836 192.6001 167.4936 15.12880450  2107
FLOCK 4X-5              
1 51004U 22002W   22027.50768978  .00001613  00000+0  95214-4 0  9994
2 51004  97.5042  96.9562 0012474 183.8589 176.2548 15.12883846  2108
FLOCK 4X-41             
1 51005U 22002X   22027.50760130  .00001671  00000+0  98478-4 0  9996
2 51005  97.5022  96.9537 0012138 180.3227 179.7998 15.12894020  2100
FLOCK 4X-3              
1 51006U 22002Y   22027.50744989  .00001681  00000+0  99002-4 0  9996
2 51006  97.5081  96.9699 0012534 189.0417 171.0590 15.12908020  2101
FLOCK 4X-18             
1 51007U 22002Z   22027.50739600  .00001576  00000+0  93059-4 0  9990
2 51007  97.5044  96.9561 0012717 184.6687 175.4428 15.12913314  2102
ICEYE X16               
1 51008U 22002AA  22027.51090450  .00002034  00000+0  12032-3 0  9996
2 51008  97.5058  96.9551 0011138 183.4604 176.6552 15.12536360  2102
FLOCK 4X-37             
1 51009U 22002AB  22027.50732154  .00001673  00000+0  98532-4 0  9998
2 51009  97.5089  96.9715 0012712 188.3282 171.7739 15.12919060  2109
FLOCK 4X-15             
1 51010U 22002AC  22027.50685284  .00001915  00000+0  11205-3 0  9991
2 51010  97.5095  96.9727 0012913 187.1216 172.9834 15.12981109  2100
FLOCK 4X-29             
1 51011U 22002AD  22027.50678957  .00001753  00000+0  10285-3 0  9998
2 51011  97.5034  96.9562 0012768 182.5784 177.5383 15.12989819  2104
FLOCK 4X-27             
1 51012U 22002AE  22027.77124539  .00001674  00000+0  98367-4 0  9990
2 51012  97.5075  97.2309 0012793 189.6467 170.4520 15.12993492  2148
2022-002AF              
1 51013U 22002AF  22027.77665527  .00002618  00000+0  15426-3 0  9991
2 51013  97.5008  97.2039 0009964 180.0141 180.1091 15.12427917  2140
2022-002AG              
1 51014U 22002AG  22027.50616644  .00004646  00000+0  26561-3 0  9994
2 51014  97.5166  96.9846 0013545 185.2723 174.8367 15.13097552  2102
FLOCK 4X-12             
1 51015U 22002AH  22027.77106978  .00001485  00000+0  87628-4 0  9998
2 51015  97.5077  97.2295 0012997 184.8240 175.2868 15.13017846  2148
FLOCK 4X-25             
1 51016U 22002AJ  22027.77110327  .00001569  00000+0  92438-4 0  9990
2 51016  97.5063  97.2290 0012503 191.9792 168.1144 15.13004903  2141
FLOCK 4X-1              
1 51017U 22002AK  22027.77097903  .00001718  00000+0  10080-3 0  9993
2 51017  97.5044  97.2195 0013066 183.7781 176.3354 15.13023185  2144
FLOCK 4X-42             
1 51018U 22002AL  22027.77102797  .00001273  00000+0  75643-4 0  9995
2 51018  97.5026  97.2170 0012728 179.4685 180.6562 15.13011395  2146
2022-002AM              
1 51019U 22002AM  22027.76973274  .00006380  00000+0  36176-3 0  9992
2 51019  97.5170  97.2476 0013629 184.5567 175.5542 15.13246395  2144
FLOCK 4X-16             
1 51020U 22002AN  22027.50613153  .00001581  00000+0  92981-4 0  9998
2 51020  97.5029  96.9570 0012948 181.4276 178.6920 15.13056306  2107
2022-002AP              
1 51021U 22002AP  22027.64653194  .00002908  00000+0  17206-3 0  9993
2 51021  97.5075  97.0873 0009457 191.6109 168.4905 15.12197214  2121
2022-002AQ              
1 51022U 22002AQ  22027.58040219  .00003504  00000+0  20654-3 0  9999
2 51022  97.5053  97.0171 0009246 189.8606 170.2444 15.12194733  2117
FLOCK 4X-38             
1 51023U 22002AR  22027.77064427  .00001569  00000+0  92279-4 0  9990
2 51023  97.5080  97.2317 0013224 186.8128 173.2925 15.13056835  2140
FLOCK 4X-32             
1 51024U 22002AS  22027.50608647  .00001277  00000+0  75769-4 0  9991
2 51024  97.5085  96.9710 0013204 184.4863 175.6252 15.13057296  2104
GRIZU-263A              
1 51025U 22002AT  22027.37320989  .00005272  00000+0  30017-3 0  9992
2 51025  97.5176  96.8570 0013849 185.1057 175.0035 15.13179900  2084
FLOCK 4X-26             
1 51026U 22002AU  22027.50583985  .00001708  00000+0  10002-3 0  9997
2 51026  97.5047  96.9596 0013370 186.1763 173.9306 15.13085839  2103
FLOCK 4X-43             
1 51027U 22002AV  22027.77022105  .00001557  00000+0  91480-4 0  9991
2 51027  97.5041  97.2204 0013311 182.5689 177.5476 15.13106522  2145
FLOCK 4X-13             
1 51028U 22002AW  22027.50555360  .00001665  00000+0  97554-4 0  9995
2 51028  97.5038  96.9603 0013291 181.9905 178.1276 15.13112024  2107
FLOCK 4X-39             
1 51029U 22002AX  22027.50532366  .00001713  00000+0  10018-3 0  9990
2 51029  97.5040  96.9612 0013238 180.5610 179.5608 15.13142994  2103
2022-002AY              
1 51030U 22002AY  22027.77643900  .00001380  00000+0  83085-4 0  9993
2 51030  97.5058  97.2189 0010425 183.9219 176.1932 15.12431697  2141
2022-002AZ              
1 51031U 22002AZ  22027.37255623  .00003467  00000+0  19843-3 0  9999
2 51031  97.5129  96.8517 0013819 185.1050 175.0043 15.13223897  2084
2022-002BA              
1 51032U 22002BA  22027.76787210  .00008495  00000+0  47735-3 0  9992
2 51032  97.4952  97.2068 0012037 169.9209 190.2266 15.13485808  2146
2022-002BB              
1 51033U 22002BB  22027.30638242  .00004772  00000+0  27156-3 0  9992
2 51033  97.5125  96.7856 0013699 185.4334 174.6751 15.13247540  2072
FLOCK 4X-23             
1 51034U 22002BC  22027.77184801  .00001426  00000+0  84528-4 0  9991
2 51034  97.5095  97.2324 0012797 185.5321 174.5770 15.12924429  2145
FLOCK 4X-17             
1 51035U 22002BD  22027.51448357  .00001741  00000+0  10470-3 0  9997
2 51035  97.5079  96.9605 0009065 188.9455 171.1615 15.12138053  2102
2022-002BE              
1 51036U 22002BE  22027.51444639  .00002429  00000+0  14452-3 0  9995
2 51036  97.5084  96.9596 0009487 193.1145 166.9840 15.12151508  2102
FLOCK 4X-10             
1 51037U 22002BF  22027.77350250  .00001461  00000+0  86924-4 0  9998
2 51037  97.5092  97.2296 0012036 187.0393 173.0671 15.12751709  2137
MDASAT-1C               
1 51038U 22002BG  22027.77716327  .00001968  00000+0  11711-3 0  9993
2 51038  97.5098  97.2288 0010165 191.3378 168.7626 15.12360296  2146
FLOCK 4X-36             
1 51039U 22002BH  22027.57873987  .00001665  00000+0  99681-4 0  9995
2 51039  97.5093  97.0304 0010296 191.2311 168.8692 15.12344804  2118
FLOCK 4X-21             
1 51040U 22002BJ  22027.51358176  .00001674  00000+0  10051-3 0  9992
2 51040  97.5068  96.9604 0009372 186.2684 173.8431 15.12238599  2102
FLOCK 4X-31             
1 51041U 22002BK  22027.64605263  .00001679  00000+0  10084-3 0  9990
2 51041  97.5035  97.0769 0009568 180.9324 179.1891 15.12225008  2122
FLOCK 4X-34             
1 51042U 22002BL  22027.64606382  .00001724  00000+0  10348-3 0  9998
2 51042  97.5090  97.0930 0009762 191.4135 168.6876 15.12220808  2126
FLOCK 4X-6              
1 51043U 22002BM  22027.51366276  .00001552  00000+0  93476-4 0  9993
2 51043  97.5070  96.9603 0009408 187.4192 172.6900 15.12226382  2109
2022-002BN              
1 51044U 22002BN  22027.51364019  .00001873  00000+0  11202-3 0  9999
2 51044  97.5022  96.9443 0009451 181.2450 178.8758 15.12231711  2107
FLOCK 4X-28             
1 51045U 22002BP  22027.64563532  .00001760  00000+0  10536-3 0  9999
2 51045  97.5046  97.0783 0010107 178.4831 181.6432 15.12273951  2129
FLOCK 4X-19             
1 51046U 22002BQ  22027.77781649  .00001311  00000+0  79407-4 0  9990
2 51046  97.5077  97.2232 0009671 189.1564 170.9492 15.12284872  2144
FLOCK 4X-9              
1 51047U 22002BR  22027.51294294  .00001776  00000+0  10621-3 0  9995
2 51047  97.5089  96.9629 0010164 191.6592 168.4405 15.12315830  2103
FLOCK 4X-35             
1 51048U 22002BS  22027.77772971  .00001675  00000+0  10040-3 0  9990
2 51048  97.5024  97.2067 0009711 182.9343 177.1832 15.12291332  2141
